NORAD_CAT_ID,OBJECT_NAME,OBJECT_TYPE,EPOCH,MEAN_MOTION,ECCENTRICITY,INCLINATION,RA_OF_ASC_NODE,ARG_OF_PERICENTER,MEAN_ANOMALY,BSTAR,MEAN_MOTION_DOT,MEAN_MOTION_DDOT,TLE_LINE0,TLE_LINE1,TLE_LINE2,SEMIMAJOR_AXIS,PERIOD,APOGEE,PERIGEE,DECAYED
54007.0,STARLINK-5132,PAYLOAD,2024-02-25 20:20:16,15.08848877,0.0001284,53.2165,308.5156,98.8488,261.265,0.00020093,2.912e-05,0.0,0 STARLINK-5132,1 54007U 22125AV  24056.84741750  .00002912  00000-0  20093-3 0  9992,2 54007  53.2165 308.5156 0001284  98.8488 261.2650 15.08848877 77370,6917.853,95.437,540.607,538.83,0.0
54007.0,STARLINK-5132,PAYLOAD,2024-02-25 23:31:02,15.08854041,0.0001223,53.2167,307.9213,97.8382,262.2749,0.00029886,4.473e-05,0.0,0 STARLINK-5132,1 54007U 22125AV  24056.97989513  .00004473  00000-0  29886-3 0  9990,2 54007  53.2167 307.9213 0001223  97.8382 262.2749 15.08854041 77341,6917.837,95.437,540.549,538.856,0.0
54007.0,STARLINK-5132,PAYLOAD,2024-02-26 20:11:04,15.08835305,0.0001345,53.2166,304.055,96.2302,263.8844,2.5824e-05,1.23e-06,0.0,0 STARLINK-5132,1 54007U 22125AV  24057.84102499  .00000123  00000-0  25824-4 0  9994,2 54007  53.2166 304.0550 0001345  96.2302 263.8844 15.08835305 77527,6917.895,95.438,540.69,538.829,0.0
54007.0,STARLINK-5132,PAYLOAD,2024-02-26 21:46:27,15.08834566,0.0001353,53.2166,303.7577,97.0279,263.0867,1.5604e-05,-4e-07,0.0,0 STARLINK-5132,1 54007U 22125AV  24057.90726572 -.00000040  00000-0  15604-4 0  9999,2 54007  53.2166 303.7577 0001353  97.0279 263.0867 15.08834566 77483,6917.897,95.438,540.698,538.826,0.0
54007.0,STARLINK-5132,PAYLOAD,2024-02-27 08:54:09,15.08833684,0.0001286,53.216,301.6752,88.0924,272.0216,-9.3389e-05,-1.774e-05,0.0,0 STARLINK-5132,1 54007U 22125AV  24058.37094772 -.00001774  00000-0 -93389-4 0  9993,2 54007  53.2160 301.6752 0001286  88.0924 272.0216 15.08833684 77557,6917.9,95.438,540.654,538.875,0.0
54007.0,STARLINK-5132,PAYLOAD,2024-02-27 23:12:38,15.08835271,0.0001295,53.2154,299.0,94.6804,265.4336,6.4397e-07,-2.78e-06,0.0,0 STARLINK-5132,1 54007U 22125AV  24058.96711048 -.00000278  00000-0  64397-6 0  9996,2 54007  53.2154 299.0000 0001295  94.6804 265.4336 15.08835271 77649,6917.895,95.438,540.656,538.864,0.0
54007.0,STARLINK-5132,PAYLOAD,2024-02-28 08:44:57,15.08840417,0.0001331,53.216,297.2157,90.2366,269.8778,6.2237e-05,7.03e-06,0.0,0 STARLINK-5132,1 54007U 22125AV  24059.36454919  .00000703  00000-0  62237-4 0  9993,2 54007  53.2160 297.2157 0001331  90.2366 269.8778 15.08840417 77708,6917.879,95.438,540.665,538.823,0.0
54007.0,STARLINK-5132,PAYLOAD,2024-02-28 21:28:02,15.08841782,0.000136,53.2158,294.8369,87.2254,272.8894,0.00026257,3.894e-05,0.0,0 STARLINK-5132,1 54007U 22125AV  24059.89447049  .00003894  00000-0  26257-3 0  9992,2 54007  53.2158 294.8369 0001360  87.2254 272.8894 15.08841782 77784,6917.875,95.437,540.681,538.799,0.0
54007.0,STARLINK-5132,PAYLOAD,2024-02-29 00:38:48,15.08847673,0.000141,53.216,294.2422,88.7538,271.3615,0.00034638,5.23e-05,0.0,0 STARLINK-5132,1 54007U 22125AV  24060.02694818  .00005230  00000-0  34638-3 0  9995,2 54007  53.2160 294.2422 0001410  88.7538 271.3615 15.08847673 77856,6917.857,95.437,540.697,538.747,0.0
54007.0,STARLINK-5132,PAYLOAD,2024-02-29 14:57:16,15.08842237,0.0001463,53.216,291.568,84.0588,276.0571,0.00023905,3.519e-05,0.0,0 STARLINK-5132,1 54007U 22125AV  24060.62311112  .00003519  00000-0  23905-3 0  9997,2 54007  53.2160 291.5680 0001463  84.0588 276.0571 15.08842237 77892,6917.874,95.437,540.751,538.726,0.0
54007.0,STARLINK-5132,PAYLOAD,2024-02-29 19:43:26,15.08842621,0.0001684,53.2165,290.6759,85.0323,275.0862,0.00014336,1.994e-05,0.0,0 STARLINK-5132,1 54007U 22125AV  24060.82183099  .00001994  00000-0  14336-3 0  9993,2 54007  53.2165 290.6759 0001684  85.0323 275.0862 15.08842621 77975,6917.872,95.437,540.902,538.572,0.0
54007.0,STARLINK-5132,PAYLOAD,2024-02-29 21:18:49,15.08841249,0.0001715,53.2178,290.379,90.8848,269.2341,0.00010364,1.362e-05,0.0,0 STARLINK-5132,1 54007U 22125AV  24060.88807141  .00001362  00000-0  10364-3 0  9996,2 54007  53.2178 290.3790 0001715  90.8848 269.2341 15.08841249 77930,6917.877,95.437,540.928,538.555,0.0
54007.0,STARLINK-5132,PAYLOAD,2024-03-01 08:26:31,15.08844033,0.0001447,53.216,288.2962,83.6824,276.4333,8.9889e-05,1.143e-05,0.0,0 STARLINK-5132,1 54007U 22125AV  24061.35174917  .00001143  00000-0  89889-4 0  9993,2 54007  53.2160 288.2962 0001447  83.6824 276.4333 15.08844033 78008,6917.868,95.437,540.734,538.732,0.0
54007.0,STARLINK-5132,PAYLOAD,2024-03-01 21:09:36,15.08846808,0.0001437,53.216,285.9182,80.2932,279.8222,6.6293e-05,7.67e-06,0.0,0 STARLINK-5132,1 54007U 22125AV  24061.88166691  .00000767  00000-0  66293-4 0  9996,2 54007  53.2160 285.9182 0001437  80.2932 279.8222 15.08846808 78082,6917.86,95.437,540.719,538.73,0.0
54007.0,STARLINK-5132,PAYLOAD,2024-03-02 19:25:00,15.08839781,0.0001271,53.2153,281.7526,85.4631,274.6506,0.00028296,4.218e-05,0.0,0 STARLINK-5132,1 54007U 22125AV  24062.80902987  .00004218  00000-0  28296-3 0  9990,2 54007  53.2153 281.7526 0001271  85.4631 274.6506 15.08839781 78270,6917.881,95.438,540.625,538.867,0.0
54007.0,STARLINK-5132,PAYLOAD,2024-03-02 21:00:22,15.08845655,0.0001264,53.2154,281.4549,90.551,269.5627,9.9441e-05,1.295e-05,0.0,0 STARLINK-5132,1 54007U 22125AV  24062.87526543  .00001295  00000-0  99441-4 0  9990,2 54007  53.2154 281.4549 0001264  90.5510 269.5627 15.08845655 78238,6917.863,95.437,540.603,538.854,0.0
54007.0,STARLINK-5132,PAYLOAD,2024-03-03 00:11:09,15.08848482,0.0001261,53.2151,280.8582,99.4431,260.6703,0.00011731,1.58e-05,0.0,0 STARLINK-5132,1 54007U 22125AV  24063.00774307  .00001580  00000-0  11731-3 0  9991,2 54007  53.2151 280.8582 0001261  99.4431 260.6703 15.08848482 78308,6917.854,95.437,540.592,538.847,0.0
54007.0,STARLINK-5132,PAYLOAD,2024-03-03 19:15:46,15.08841709,0.0001378,53.2156,277.2872,104.6982,255.4163,7.4289e-05,8.95e-06,0.0,0 STARLINK-5132,1 54007U 22125AV  24063.80262702  .00000895  00000-0  74289-4 0  9996,2 54007  53.2156 277.2872 0001378 104.6982 255.4163 15.08841709 78424,6917.875,95.437,540.693,538.787,0.0
54007.0,STARLINK-5132,PAYLOAD,2024-03-03 20:51:09,15.08850472,0.0001321,53.2173,276.9878,102.9067,257.2073,0.00010752,1.424e-05,0.0,0 STARLINK-5132,1 54007U 22125AV  24063.86886201  .00001424  00000-0  10752-3 0  9991,2 54007  53.2173 276.9878 0001321 102.9067 257.2073 15.08850472 78380,6917.848,95.437,540.627,538.8,0.0
54007.0,STARLINK-5132,PAYLOAD,2024-03-04 20:41:56,15.08851905,0.0001225,53.2158,272.5332,84.0111,276.102,8.0445e-05,9.93e-06,0.0,0 STARLINK-5132,1 54007U 22125AV  24064.86246137  .00000993  00000-0  80445-4 0  9997,2 54007  53.2158 272.5332 0001225  84.0111 276.1020 15.08851905 78589,6917.844,95.437,540.556,538.862,0.0
54007.0,STARLINK-5132,PAYLOAD,2024-03-05 14:11:11,15.08838056,0.0001321,53.2155,269.2629,83.8053,276.309,3.2257e-05,2.25e-06,0.0,0 STARLINK-5132,1 54007U 22125AV  24065.59110972  .00000225  00000-0  32257-4 0  9991,2 54007  53.2155 269.2629 0001321  83.8053 276.3090 15.08838056 78645,6917.886,95.438,540.665,538.837,0.0
54007.0,STARLINK-5132,PAYLOAD,2024-03-05 20:32:44,15.08835329,0.00013,53.2156,268.0736,86.7194,273.3947,-1.428e-05,-5.15e-06,0.0,0 STARLINK-5132,1 54007U 22125AV  24065.85607139 -.00000515  00000-0 -14280-4 0  9996,2 54007  53.2156 268.0736 0001300  86.7194 273.3947 15.08835329 78735,6917.895,95.438,540.659,538.86,0.0
54007.0,STARLINK-5132,PAYLOAD,2024-03-06 14:01:59,15.08839065,0.000128,53.216,264.8027,91.0343,269.0796,-7.8362e-06,-4.13e-06,0.0,0 STARLINK-5132,1 54007U 22125AV  24066.58471080 -.00000413  00000-0 -78362-5 0  9990,2 54007  53.2160 264.8027 0001280  91.0343 269.0796 15.08839065 78790,6917.883,95.438,540.634,538.863,0.0
54007.0,STARLINK-5132,PAYLOAD,2024-03-07 12:17:23,15.08836638,0.0001296,53.2155,260.6399,95.5021,264.6119,0.00015627,2.2e-05,0.0,0 STARLINK-5132,1 54007U 22125AV  24067.51207466  .00002200  00000-0  15627-3 0  9996,2 54007  53.2155 260.6399 0001296  95.5021 264.6119 15.08836638 78938,6917.891,95.438,540.652,538.859,0.0
54007.0,STARLINK-5132,PAYLOAD,2024-03-08 12:08:10,15.08841199,0.0001331,53.2151,256.1792,84.2905,275.8239,0.0001624,2.298e-05,0.0,0 STARLINK-5132,1 54007U 22125AV  24068.50567507  .00002298  00000-0  16240-3 0  9990,2 54007  53.2151 256.1792 0001331  84.2905 275.8239 15.08841199 79089,6917.877,95.437,540.662,538.821,0.0
54007.0,STARLINK-5132,PAYLOAD,2024-03-09 05:37:24,15.08848189,0.0001041,53.2156,252.9078,87.159,272.9521,0.00024052,3.543e-05,0.0,0 STARLINK-5132,1 54007U 22125AV  24069.23431187  .00003543  00000-0  24052-3 0  9999,2 54007  53.2156 252.9078 0001041  87.1590 272.9521 15.08848189 79241,6917.855,95.437,540.441,539.0,0.0
54007.0,STARLINK-5132,PAYLOAD,2024-03-09 18:20:29,15.08839796,9.83e-05,53.2158,250.5271,106.242,253.868,5.8601e-05,6.45e-06,0.0,0 STARLINK-5132,1 54007U 22125AV  24069.76423376  .00000645  00000-0  58601-4 0  9996,2 54007  53.2158 250.5271 0000983 106.2420 253.8680 15.08839796 79328,6917.881,95.438,540.426,539.066,0.0
54007.0,STARLINK-5132,PAYLOAD,2024-03-09 21:31:16,15.08842724,0.000133,53.214,249.9326,90.6799,269.4345,0.00011264,1.505e-05,0.0,0 STARLINK-5132,1 54007U 22125AV  24069.89671382  .00001505  00000-0  11264-3 0  9991,2 54007  53.2140 249.9326 0001330  90.6799 269.4345 15.08842724 79296,6917.872,95.437,540.657,538.817,0.0
54007.0,STARLINK-5132,PAYLOAD,2024-03-10 21:22:02,15.08846379,0.0001086,53.2162,245.4702,98.3046,261.8069,0.00011714,1.577e-05,0.0,0 STARLINK-5132,1 54007U 22125AV  24070.89031180  .00001577  00000-0  11714-3 0  9998,2 54007  53.2162 245.4702 0001086  98.3046 261.8069 15.08846379 79443,6917.861,95.437,540.477,538.975,0.0
54007.0,STARLINK-5132,PAYLOAD,2024-03-11 18:02:02,15.08865704,7.09e-05,53.2162,241.6041,65.2942,294.8124,-0.00074268,-0.00012096,0.0,0 STARLINK-5132,1 54007U 22125AV  24071.75141411 -.00012096  00000-0 -74268-3 0  9996,2 54007  53.2162 241.6041 0000709  65.2942 294.8124 15.08865704 79627,6917.802,95.436,540.157,539.176,0.0
